NORAD_CAT_ID,OBJECT_NAME,OBJECT_TYPE,EPOCH,MEAN_MOTION,ECCENTRICITY,INCLINATION,RA_OF_ASC_NODE,ARG_OF_PERICENTER,MEAN_ANOMALY,BSTAR,MEAN_MOTION_DOT,MEAN_MOTION_DDOT,TLE_LINE0,TLE_LINE1,TLE_LINE2,SEMIMAJOR_AXIS,PERIOD,APOGEE,PERIGEE,DECAYED
52302.0,STARLINK-3564,PAYLOAD,2024-02-09 14:27:40,15.08840068,0.0001524,53.2169,256.7906,106.9967,253.1192,9.1205e-05,1.164e-05,0.0,0 STARLINK-3564,1 52302U 22041AT  24040.60254664  .00001164  00000-0  91205-4 0  9997,2 52302  53.2169 256.7906 0001524 106.9967 253.1192 15.08840068100043,6917.88,95.438,540.799,538.691,0.0
52302.0,STARLINK-3564,PAYLOAD,2024-02-09 19:13:49,15.08841079,0.0001402,53.2157,255.9016,81.0434,279.0717,9.7041e-05,1.257e-05,0.0,0 STARLINK-3564,1 52302U 22041AT  24040.80126689  .00001257  00000-0  97041-4 0  9991,2 52302  53.2157 255.9016 0001402  81.0434 279.0717 15.08841079101280,6917.877,95.437,540.712,538.772,0.0
52302.0,STARLINK-3564,PAYLOAD,2024-02-09 20:49:12,15.08842773,0.0001221,53.2157,255.6043,101.4219,258.691,6.0402e-05,6.74e-06,0.0,0 STARLINK-3564,1 52302U 22041AT  24040.86750533  .00000674  00000-0  60402-4 0  9991,2 52302  53.2157 255.6043 0001221 101.4219 258.6910 15.08842773100081,6917.872,95.437,540.582,538.892,0.0
52302.0,STARLINK-3564,PAYLOAD,2024-02-10 19:04:36,15.08837713,0.0001222,53.2167,251.4386,108.6319,251.4806,7.9815e-05,9.83e-06,0.0,0 STARLINK-3564,1 52302U 22041AT  24041.79486743  .00000983  00000-0  79815-4 0  9994,2 52302  53.2167 251.4386 0001222 108.6319 251.4806 15.08837713100226,6917.887,95.438,540.598,538.907,0.0
52302.0,STARLINK-3564,PAYLOAD,2024-02-10 23:50:45,15.0884872,0.0001689,53.2165,250.5461,117.6826,242.4338,-7.8701e-05,-1.541e-05,0.0,0 STARLINK-3564,1 52302U 22041AT  24041.99358359 -.00001541  00000-0 -78701-4 0  9993,2 52302  53.2165 250.5461 0001689 117.6826 242.4338 15.08848720101465,6917.854,95.437,540.887,538.55,0.0
52302.0,STARLINK-3564,PAYLOAD,2024-02-11 20:30:46,15.08839631,0.000145,53.2164,246.6816,103.1246,256.9908,4.1207e-05,3.68e-06,0.0,0 STARLINK-3564,1 52302U 22041AT  24042.85470700  .00000368  00000-0  41207-4 0  9999,2 52302  53.2164 246.6816 0001450 103.1246 256.9908 15.08839631101594,6917.882,95.438,540.75,538.743,0.0
52302.0,STARLINK-3564,PAYLOAD,2024-02-12 18:46:11,15.08835436,0.0001492,53.2167,242.5176,104.0466,256.0693,4.143e-05,3.71e-06,0.0,0 STARLINK-3564,1 52302U 22041AT  24043.78207274  .00000371  00000-0  41430-4 0  9998,2 52302  53.2167 242.5176 0001492 104.0466 256.0693 15.08835436101738,6917.894,95.438,540.791,538.727,0.0
52302.0,STARLINK-3564,PAYLOAD,2024-02-12 21:56:57,15.08836568,0.0001512,53.217,241.923,103.6021,256.5139,4.5859e-05,4.42e-06,0.0,0 STARLINK-3564,1 52302U 22041AT  24043.91455165  .00000442  00000-0  45859-4 0  9995,2 52302  53.2170 241.9230 0001512 103.6021 256.5139 15.08836568100546,6917.891,95.438,540.802,538.71,0.0
52302.0,STARLINK-3564,PAYLOAD,2024-02-12 23:32:20,15.08836678,0.0001513,53.217,241.6257,103.5694,256.5467,4.4914e-05,4.27e-06,0.0,0 STARLINK-3564,1 52302U 22041AT  24043.98079172  .00000427  00000-0  44914-4 0  9996,2 52302  53.2170 241.6257 0001513 103.5694 256.5467 15.08836678100555,6917.891,95.438,540.802,538.709,0.0
52302.0,STARLINK-3564,PAYLOAD,2024-02-13 20:12:21,15.08835853,0.0001397,53.2167,237.7593,93.5788,266.5364,3.8416e-06,-2.27e-06,0.0,0 STARLINK-3564,1 52302U 22041AT  24044.84191863 -.00000227  00000-0  38416-5 0  9994,2 52302  53.2167 237.7593 0001397  93.5788 266.5364 15.08835853100687,6917.893,95.438,540.724,538.792,0.0
52302.0,STARLINK-3564,PAYLOAD,2024-02-14 12:06:13,15.08791616,0.0001738,53.2173,234.7854,94.0691,266.05,0.00069376,0.00010756,0.0,0 STARLINK-3564,1 52302U 22041AT  24045.50431752  .00010756  00000-0  69376-3 0  9996,2 52302  53.2173 234.7854 0001738  94.0691 266.0500 15.08791616101999,6918.028,95.441,541.096,538.691,0.0
52302.0,STARLINK-3564,PAYLOAD,2024-02-14 16:52:21,15.08846877,0.0001381,53.2163,233.8948,88.3378,271.7772,0.00013544,1.869e-05,0.0,0 STARLINK-3564,1 52302U 22041AT  24045.70302919  .00001869  00000-0  13544-3 0  9991,2 52302  53.2163 233.8948 0001381  88.3378 271.7772 15.08846877102023,6917.859,95.437,540.68,538.769,0.0
52302.0,STARLINK-3564,PAYLOAD,2024-02-14 21:38:30,15.08849848,0.0001442,53.2165,233.0025,87.9753,272.1404,0.00016115,2.278e-05,0.0,0 STARLINK-3564,1 52302U 22041AT  24045.90174631  .00002278  00000-0  16115-3 0  9993,2 52302  53.2165 233.0025 0001442  87.9753 272.1404 15.08849848100849,6917.85,95.437,540.713,538.718,0.0
52302.0,STARLINK-3564,PAYLOAD,2024-02-15 05:35:26,15.08848152,0.0001075,53.2149,231.5174,105.2215,254.8896,8.4507e-05,1.058e-05,0.0,0 STARLINK-3564,1 52302U 22041AT  24046.23294730  .00001058  00000-0  84507-4 0  9999,2 52302  53.2149 231.5174 0001075 105.2215 254.8896 15.08848152100892,6917.855,95.437,540.464,538.977,0.0
52302.0,STARLINK-3564,PAYLOAD,2024-02-15 19:53:55,15.08840696,0.0001326,53.2159,228.8386,97.6615,262.4528,7.0177e-05,8.29e-06,0.0,0 STARLINK-3564,1 52302U 22041AT  24046.82911494  .00000829  00000-0  70177-4 0  9990,2 52302  53.2159 228.8386 0001326  97.6615 262.4528 15.08840696102191,6917.878,95.438,540.661,538.826,0.0
52302.0,STARLINK-3564,PAYLOAD,2024-02-15 21:29:18,15.08841383,0.0001327,53.2158,228.5406,103.0943,257.0197,7.246e-05,8.66e-06,0.0,0 STARLINK-3564,1 52302U 22041AT  24046.89535394  .00000866  00000-0  72460-4 0  9996,2 52302  53.2158 228.5406 0001327 103.0943 257.0197 15.08841383100999,6917.876,95.437,540.659,538.823,0.0
52302.0,STARLINK-3564,PAYLOAD,2024-02-16 05:26:14,15.08839625,0.0001327,53.2159,227.0538,96.657,263.4573,7.641e-05,9.28e-06,0.0,0 STARLINK-3564,1 52302U 22041AT  24047.22655514  .00000928  00000-0  76410-4 0  9999,2 52302  53.2159 227.0538 0001327  96.6570 263.4573 15.08839625101045,6917.882,95.438,540.665,538.829,0.0
52302.0,STARLINK-3564,PAYLOAD,2024-02-16 21:20:04,15.08852792,0.0001223,53.2157,224.0798,104.3271,255.7857,2.1443e-05,5.4e-07,0.0,0 STARLINK-3564,1 52302U 22041AT  24047.88894511  .00000054  00000-0  21443-4 0  9999,2 52302  53.2157 224.0798 0001223 104.3271 255.7857 15.08852792101148,6917.841,95.437,540.552,538.86,0.0
52302.0,STARLINK-3564,PAYLOAD,2024-02-17 05:17:00,15.08842842,0.0001377,53.215,222.5941,91.4616,268.6534,7.3397e-05,8.8e-06,0.0,0 STARLINK-3564,1 52302U 22041AT  24048.22015013  .00000880  00000-0  73397-4 0  9992,2 52302  53.2150 222.5941 0001377  91.4616 268.6534 15.08842842102403,6917.872,95.437,540.689,538.784,0.0
52302.0,STARLINK-3564,PAYLOAD,2024-02-17 18:00:06,15.08836449,0.0001252,53.2167,220.2141,98.376,261.7374,3.5768e-05,2.81e-06,0.0,0 STARLINK-3564,1 52302U 22041AT  24048.75007460  .00000281  00000-0  35768-4 0  9992,2 52302  53.2167 220.2141 0001252  98.3760 261.7374 15.08836449102486,6917.891,95.438,540.622,538.89,0.0
52302.0,STARLINK-3564,PAYLOAD,2024-02-17 21:10:53,15.08786926,0.0001597,53.2168,219.6194,108.7389,251.3776,0.00076245,0.0001185,0.0,0 STARLINK-3564,1 52302U 22041AT  24048.88256588  .00011850  00000-0  76245-3 0  9991,2 52302  53.2168 219.6194 0001597 108.7389 251.3776 15.08786926101295,6918.043,95.441,541.012,538.803,0.0
52302.0,STARLINK-3564,PAYLOAD,2024-02-18 11:29:20,15.08838716,0.000136,53.2181,216.9434,99.1843,260.9303,2.322e-05,8.2e-07,0.0,0 STARLINK-3564,1 52302U 22041AT  24049.47871469  .00000082  00000-0  23220-4 0  9999,2 52302  53.2181 216.9434 0001360  99.1843 260.9303 15.08838716102594,6917.884,95.438,540.69,538.808,0.0
52302.0,STARLINK-3564,PAYLOAD,2024-02-18 14:40:06,15.08841884,0.0001337,53.2171,216.3492,96.9906,263.1238,4.707e-05,4.61e-06,0.0,0 STARLINK-3564,1 52302U 22041AT  24049.61119191  .00000461  00000-0  47070-4 0  9992,2 52302  53.2171 216.3492 0001337  96.9906 263.1238 15.08841884101401,6917.875,95.437,540.665,538.815,0.0
52302.0,STARLINK-3564,PAYLOAD,2024-02-18 21:01:38,15.08850473,0.0001087,53.2165,215.1577,89.3503,270.7613,5.2488e-05,5.48e-06,0.0,0 STARLINK-3564,1 52302U 22041AT  24049.87614563  .00000548  00000-0  52488-4 0  9998,2 52302  53.2165 215.1577 0001087  89.3503 270.7613 15.08850473101445,6917.848,95.437,540.465,538.961,0.0
52302.0,STARLINK-3564,PAYLOAD,2024-02-19 03:23:10,15.08859394,0.0001115,53.2171,213.9696,95.0217,265.0902,0.00011735,1.581e-05,0.0,0 STARLINK-3564,1 52302U 22041AT  24050.14109535  .00001581  00000-0  11735-3 0  9995,2 52302  53.2171 213.9696 0001115  95.0217 265.0902 15.08859394102695,6917.821,95.436,540.457,538.915,0.0
52302.0,STARLINK-3564,PAYLOAD,2024-02-19 14:30:53,15.08847072,0.000149,53.2185,211.8899,110.4113,249.7039,0.00011785,1.588e-05,0.0,0 STARLINK-3564,1 52302U 22041AT  24050.60478228  .00001588  00000-0  11785-3 0  9996,2 52302  53.2185 211.8899 0001490 110.4113 249.7039 15.08847072101559,6917.859,95.437,540.755,538.693,0.0
52302.0,STARLINK-3564,PAYLOAD,2024-02-19 17:41:40,15.08826953,0.0001214,53.2169,211.2939,90.0202,270.0929,-3.2095e-05,-7.98e-06,0.0,0 STARLINK-3564,1 52302U 22041AT  24050.73727936 -.00000798  00000-0 -32095-4 0  9995,2 52302  53.2169 211.2939 0001214  90.0202 270.0929 15.08826953102782,6917.92,95.438,540.625,538.945,0.0
52302.0,STARLINK-3564,PAYLOAD,2024-02-19 20:52:27,15.08825636,0.0001126,53.2168,210.7,89.5644,270.5477,-3.0636e-05,-7.75e-06,0.0,0 STARLINK-3564,1 52302U 22041AT  24050.86976056 -.00000775  00000-0 -30636-4 0  9992,2 52302  53.2168 210.7000 0001126  89.5644 270.5477 15.08825636101597,6917.924,95.438,540.568,539.01,0.0
52302.0,STARLINK-3564,PAYLOAD,2024-02-20 14:21:42,15.0882625,0.0001127,53.2171,207.4286,85.956,274.1561,-9.3454e-05,-1.774e-05,0.0,0 STARLINK-3564,1 52302U 22041AT  24051.59840822 -.00001774  00000-0 -93454-4 0  9991,2 52302  53.2171 207.4286 0001127  85.9560 274.1561 15.08826250101708,6917.922,95.438,540.567,539.008,0.0
52302.0,STARLINK-3564,PAYLOAD,2024-02-20 19:07:51,15.08832435,0.0001139,53.2173,206.5368,85.5635,274.5487,-3.6073e-05,-8.62e-06,0.0,0 STARLINK-3564,1 52302U 22041AT  24051.79712393 -.00000862  00000-0 -36073-4 0  9995,2 52302  53.2173 206.5368 0001139  85.5635 274.5487 15.08832435102943,6917.904,95.438,540.556,538.981,0.0
